SL-4 R/B                
1 39679U 14021B   26009.11835460  .00011658  00000+0  27403-3 0  9996
2 39679  51.6072 267.4709 0099711 245.4135 113.6432 15.37406715647100
ALOS-2                  
1 39766U 14029A   26009.20198993  .00000196  00000+0  33140-4 0  9995
2 39766  97.9211 108.6554 0001401  96.6553 263.4818 14.79462847628078
YAOGAN-29               
1 41038U 15069A   26009.21508243  .00000131  00000+0  22801-4 0  9990
2 41038  98.0196  37.4719 0001892 136.3884 223.7479 14.82917360547062
ASTRO-H (HITOMI)        
1 41337U 16012A   26008.33938022  .00003487  00000+0  20609-3 0  9995
2 41337  31.0009  25.8649 0009550  86.9047 273.2684 15.09561227543103
HXMT (HUIYAN)           
1 42758U 17034A   26009.19193422  .00006769  00000+0  34690-3 0  9991
2 42758  43.0157 347.2503 0033062 220.2026 139.6375 15.16639767473504
CZ-2C R/B               
1 43521U 18054D   26008.31853034  .00184700  00000+0  89099-3 0  9993
2 43521  35.1338 359.8199 0010674  55.4889 304.6852 15.80990564419257
SAOCOM 1A               
1 43641U 18076A   26009.14866601  .00000829  00000+0  11058-3 0  9995
2 43641  97.8848 198.1720 0001367  84.0046 276.1323 14.82170732392543
H-2A R/B                
1 43682U 18084L   26009.14902843  .00017402  00000+0  45377-3 0  9994
2 43682  98.8765 213.9359 0025836 229.6210 130.2775 15.38599412396613
SAOCOM 1B               
1 46265U 20059A   26009.17987304 -.00000074  00000+0 -27004-5 0  9995
2 46265  97.8845 197.3023 0001437  81.8067 278.3309 14.82173614289936
CSS (TIANHE)            
1 48274U 21035A   26008.99119953  .00022794  00000+0  27309-3 0  9995
2 48274  41.4653 211.1210 0011299 248.2668 111.6968 15.60328701268287
COSMOS 2550             
1 48865U 21056A   26009.17843755 -.00000196  00000+0 -13780-6 0  9994
2 48865  67.1410 220.9398 0008391 269.4106  90.6087 15.33840878254338
CZ-2C R/B               
1 52794U 22058K   26008.44508760  .00034034  00000+0  57495-3 0  9990
2 52794  50.1898 267.2044 0043406 307.9069  51.7978 15.50180869200772
