CCSDS_OMM_VERS = 2.0
CREATION_DATE  = 
ORIGINATOR     = 

OBJECT_NAME    = SL-4 R/B
OBJECT_ID      = 2014-021B
CENTER_NAME    = EARTH
REF_FRAME      = TEME
TIME_SYSTEM    = UTC
MEAN_ELEMENT_THEORY = SGP/SGP4

EPOCH          = 2026-01-09T02:50:25.837440
MEAN_MOTION    = 15.37406715
ECCENTRICITY   = .0099711
INCLINATION    = 51.6072
RA_OF_ASC_NODE = 267.4709
ARG_OF_PERICENTER = 245.4135
MEAN_ANOMALY   = 113.6432

EPHEMERIS_TYPE = 0
CLASSIFICATION_TYPE = U
NORAD_CAT_ID   = 39679
ELEMENT_SET_NO = 999
REV_AT_EPOCH   = 64710
BSTAR          = .27403E-3
MEAN_MOTION_DOT = .11658E-3
MEAN_MOTION_DDOT = 0

CCSDS_OMM_VERS = 2.0
CREATION_DATE  = 
ORIGINATOR     = 

OBJECT_NAME    = ALOS-2
OBJECT_ID      = 2014-029A
CENTER_NAME    = EARTH
REF_FRAME      = TEME
TIME_SYSTEM    = UTC
MEAN_ELEMENT_THEORY = SGP/SGP4

EPOCH          = 2026-01-09T04:50:51.929952
MEAN_MOTION    = 14.79462847
ECCENTRICITY   = .0001401
INCLINATION    = 97.9211
RA_OF_ASC_NODE = 108.6554
ARG_OF_PERICENTER = 96.6553
MEAN_ANOMALY   = 263.4818

EPHEMERIS_TYPE = 0
CLASSIFICATION_TYPE = U
NORAD_CAT_ID   = 39766
ELEMENT_SET_NO = 999
REV_AT_EPOCH   = 62807
BSTAR          = .3314E-4
MEAN_MOTION_DOT = .196E-5
MEAN_MOTION_DDOT = 0

CCSDS_OMM_VERS = 2.0
CREATION_DATE  = 
ORIGINATOR     = 

OBJECT_NAME    = YAOGAN-29
OBJECT_ID      = 2015-069A
CENTER_NAME    = EARTH
REF_FRAME      = TEME
TIME_SYSTEM    = UTC
MEAN_ELEMENT_THEORY = SGP/SGP4

EPOCH          = 2026-01-09T05:09:43.121952
MEAN_MOTION    = 14.82917360
ECCENTRICITY   = .0001892
INCLINATION    = 98.0196
RA_OF_ASC_NODE = 37.4719
ARG_OF_PERICENTER = 136.3884
MEAN_ANOMALY   = 223.7479

EPHEMERIS_TYPE = 0
CLASSIFICATION_TYPE = U
NORAD_CAT_ID   = 41038
ELEMENT_SET_NO = 999
REV_AT_EPOCH   = 54706
BSTAR          = .22801E-4
MEAN_MOTION_DOT = .131E-5
MEAN_MOTION_DDOT = 0

CCSDS_OMM_VERS = 2.0
CREATION_DATE  = 
ORIGINATOR     = 

OBJECT_NAME    = ASTRO-H (HITOMI)
OBJECT_ID      = 2016-012A
CENTER_NAME    = EARTH
REF_FRAME      = TEME
TIME_SYSTEM    = UTC
MEAN_ELEMENT_THEORY = SGP/SGP4

EPOCH          = 2026-01-08T08:08:42.451008
MEAN_MOTION    = 15.09561227
ECCENTRICITY   = .000955
INCLINATION    = 31.0009
RA_OF_ASC_NODE = 25.8649
ARG_OF_PERICENTER = 86.9047
MEAN_ANOMALY   = 273.2684

EPHEMERIS_TYPE = 0
CLASSIFICATION_TYPE = U
NORAD_CAT_ID   = 41337
ELEMENT_SET_NO = 999
REV_AT_EPOCH   = 54310
BSTAR          = .20609E-3
MEAN_MOTION_DOT = .3487E-4
MEAN_MOTION_DDOT = 0

CCSDS_OMM_VERS = 2.0
CREATION_DATE  = 
ORIGINATOR     = 

OBJECT_NAME    = HXMT (HUIYAN)
OBJECT_ID      = 2017-034A
CENTER_NAME    = EARTH
REF_FRAME      = TEME
TIME_SYSTEM    = UTC
MEAN_ELEMENT_THEORY = SGP/SGP4

EPOCH          = 2026-01-09T04:36:23.116608
MEAN_MOTION    = 15.16639767
ECCENTRICITY   = .0033062
INCLINATION    = 43.0157
RA_OF_ASC_NODE = 347.2503
ARG_OF_PERICENTER = 220.2026
MEAN_ANOMALY   = 139.6375

EPHEMERIS_TYPE = 0
CLASSIFICATION_TYPE = U
NORAD_CAT_ID   = 42758
ELEMENT_SET_NO = 999
REV_AT_EPOCH   = 47350
BSTAR          = .3469E-3
MEAN_MOTION_DOT = .6769E-4
MEAN_MOTION_DDOT = 0

CCSDS_OMM_VERS = 2.0
CREATION_DATE  = 
ORIGINATOR     = 

OBJECT_NAME    = CZ-2C R/B
OBJECT_ID      = 2018-054D
CENTER_NAME    = EARTH
REF_FRAME      = TEME
TIME_SYSTEM    = UTC
MEAN_ELEMENT_THEORY = SGP/SGP4

EPOCH          = 2026-01-08T07:38:41.021376
MEAN_MOTION    = 15.80990564
ECCENTRICITY   = .0010674
INCLINATION    = 35.1338
RA_OF_ASC_NODE = 359.8199
ARG_OF_PERICENTER = 55.4889
MEAN_ANOMALY   = 304.6852

EPHEMERIS_TYPE = 0
CLASSIFICATION_TYPE = U
NORAD_CAT_ID   = 43521
ELEMENT_SET_NO = 999
REV_AT_EPOCH   = 41925
BSTAR          = .89099E-3
MEAN_MOTION_DOT = .1847E-2
MEAN_MOTION_DDOT = 0

CCSDS_OMM_VERS = 2.0
CREATION_DATE  = 
ORIGINATOR     = 

OBJECT_NAME    = SAOCOM 1A
OBJECT_ID      = 2018-076A
CENTER_NAME    = EARTH
REF_FRAME      = TEME
TIME_SYSTEM    = UTC
MEAN_ELEMENT_THEORY = SGP/SGP4

EPOCH          = 2026-01-09T03:34:04.743264
MEAN_MOTION    = 14.82170732
ECCENTRICITY   = .0001367
INCLINATION    = 97.8848
RA_OF_ASC_NODE = 198.1720
ARG_OF_PERICENTER = 84.0046
MEAN_ANOMALY   = 276.1323

EPHEMERIS_TYPE = 0
CLASSIFICATION_TYPE = U
NORAD_CAT_ID   = 43641
ELEMENT_SET_NO = 999
REV_AT_EPOCH   = 39254
BSTAR          = .11058E-3
MEAN_MOTION_DOT = .829E-5
MEAN_MOTION_DDOT = 0

CCSDS_OMM_VERS = 2.0
CREATION_DATE  = 
ORIGINATOR     = 

OBJECT_NAME    = H-2A R/B
OBJECT_ID      = 2018-084L
CENTER_NAME    = EARTH
REF_FRAME      = TEME
TIME_SYSTEM    = UTC
MEAN_ELEMENT_THEORY = SGP/SGP4

EPOCH          = 2026-01-09T03:34:36.056352
MEAN_MOTION    = 15.38599412
ECCENTRICITY   = .0025836
INCLINATION    = 98.8765
RA_OF_ASC_NODE = 213.9359
ARG_OF_PERICENTER = 229.6210
MEAN_ANOMALY   = 130.2775

EPHEMERIS_TYPE = 0
CLASSIFICATION_TYPE = U
NORAD_CAT_ID   = 43682
ELEMENT_SET_NO = 999
REV_AT_EPOCH   = 39661
BSTAR          = .45377E-3
MEAN_MOTION_DOT = .17402E-3
MEAN_MOTION_DDOT = 0

CCSDS_OMM_VERS = 2.0
CREATION_DATE  = 
ORIGINATOR     = 

OBJECT_NAME    = SAOCOM 1B
OBJECT_ID      = 2020-059A
CENTER_NAME    = EARTH
REF_FRAME      = TEME
TIME_SYSTEM    = UTC
MEAN_ELEMENT_THEORY = SGP/SGP4

EPOCH          = 2026-01-09T04:19:01.030656
MEAN_MOTION    = 14.82173614
ECCENTRICITY   = .0001437
INCLINATION    = 97.8845
RA_OF_ASC_NODE = 197.3023
ARG_OF_PERICENTER = 81.8067
MEAN_ANOMALY   = 278.3309

EPHEMERIS_TYPE = 0
CLASSIFICATION_TYPE = U
NORAD_CAT_ID   = 46265
ELEMENT_SET_NO = 999
REV_AT_EPOCH   = 28993
BSTAR          = -.27004E-5
MEAN_MOTION_DOT = -.74E-6
MEAN_MOTION_DDOT = 0

CCSDS_OMM_VERS = 2.0
CREATION_DATE  = 
ORIGINATOR     = 

OBJECT_NAME    = CSS (TIANHE)
OBJECT_ID      = 2021-035A
CENTER_NAME    = EARTH
REF_FRAME      = TEME
TIME_SYSTEM    = UTC
MEAN_ELEMENT_THEORY = SGP/SGP4

EPOCH          = 2026-01-08T23:47:19.639392
MEAN_MOTION    = 15.60328701
ECCENTRICITY   = .0011299
INCLINATION    = 41.4653
RA_OF_ASC_NODE = 211.1210
ARG_OF_PERICENTER = 248.2668
MEAN_ANOMALY   = 111.6968

EPHEMERIS_TYPE = 0
CLASSIFICATION_TYPE = U
NORAD_CAT_ID   = 48274
ELEMENT_SET_NO = 999
REV_AT_EPOCH   = 26828
BSTAR          = .27309E-3
MEAN_MOTION_DOT = .22794E-3
MEAN_MOTION_DDOT = 0

CCSDS_OMM_VERS = 2.0
CREATION_DATE  = 
ORIGINATOR     = 

OBJECT_NAME    = COSMOS 2550
OBJECT_ID      = 2021-056A
CENTER_NAME    = EARTH
REF_FRAME      = TEME
TIME_SYSTEM    = UTC
MEAN_ELEMENT_THEORY = SGP/SGP4

EPOCH          = 2026-01-09T04:16:57.004320
MEAN_MOTION    = 15.33840878
ECCENTRICITY   = .0008391
INCLINATION    = 67.1410
RA_OF_ASC_NODE = 220.9398
ARG_OF_PERICENTER = 269.4106
MEAN_ANOMALY   = 90.6087

EPHEMERIS_TYPE = 0
CLASSIFICATION_TYPE = U
NORAD_CAT_ID   = 48865
ELEMENT_SET_NO = 999
REV_AT_EPOCH   = 25433
BSTAR          = -.1378E-6
MEAN_MOTION_DOT = -.196E-5
MEAN_MOTION_DDOT = 0

CCSDS_OMM_VERS = 2.0
CREATION_DATE  = 
ORIGINATOR     = 

OBJECT_NAME    = CZ-2C R/B
OBJECT_ID      = 2022-058K
CENTER_NAME    = EARTH
REF_FRAME      = TEME
TIME_SYSTEM    = UTC
MEAN_ELEMENT_THEORY = SGP/SGP4

EPOCH          = 2026-01-08T10:40:55.568640
MEAN_MOTION    = 15.50180869
ECCENTRICITY   = .00434065
INCLINATION    = 50.1898
RA_OF_ASC_NODE = 267.2044
ARG_OF_PERICENTER = 307.9069
MEAN_ANOMALY   = 51.7978

EPHEMERIS_TYPE = 0
CLASSIFICATION_TYPE = U
NORAD_CAT_ID   = 52794
ELEMENT_SET_NO = 999
REV_AT_EPOCH   = 20077
BSTAR          = .57495373E-3
MEAN_MOTION_DOT = .34034E-3
MEAN_MOTION_DDOT = 0

